GLOBAL-2                
1 43812U 18099BG  26068.69955396  .00003970  00000+0  26145-3 0  9998
2 43812  97.3697 109.3280 0007454 127.1924 232.9986 15.08046936396919
STARLINK-34915          
1 65187U 25175P   26068.64393262  .00003527  00000+0  24839-3 0  9999
2 65187  97.6020 302.6143 0002365  82.3451 277.8045 15.05670950 32636
